NORAD_CAT_ID,OBJECT_NAME,OBJECT_TYPE,EPOCH,MEAN_MOTION,ECCENTRICITY,INCLINATION,RA_OF_ASC_NODE,ARG_OF_PERICENTER,MEAN_ANOMALY,BSTAR,MEAN_MOTION_DOT,MEAN_MOTION_DDOT,TLE_LINE0,TLE_LINE1,TLE_LINE2,SEMIMAJOR_AXIS,PERIOD,APOGEE,PERIGEE,DECAYED
51980.0,STARLINK-3649,PAYLOAD,2023-10-14 12:22:46,15.08855785,0.0001776,53.2175,16.9072,87.3085,272.8111,0.00064773,0.0001004,0.0,0 STARLINK-3649,1 51980U 22025AA  23287.51581167  .00010040  00000-0  64773-3 0  9995,2 51980  53.2175  16.9072 0001776  87.3085 272.8111 15.08855785 88634,6917.832,95.437,540.926,538.469,0.0
51980.0,STARLINK-3649,PAYLOAD,2023-10-14 23:30:28,15.08845402,0.0001907,53.2196,14.826,87.8907,272.2303,0.00030473,4.566e-05,0.0,0 STARLINK-3649,1 51980U 22025AA  23287.97949333  .00004566  00000-0  30473-3 0  9994,2 51980  53.2196  14.8260 0001907  87.8907 272.2303 15.08845402 89797,6917.864,95.437,541.048,538.41,0.0
51980.0,STARLINK-3649,PAYLOAD,2023-10-15 10:38:10,15.08828821,0.0001696,53.2175,12.7455,89.1823,270.9364,9.6416e-05,1.246e-05,0.0,0 STARLINK-3649,1 51980U 22025AA  23288.44317955  .00001246  00000-0  96416-4 0  9998,2 51980  53.2175  12.7455 0001696  89.1823 270.9364 15.08828821 89860,6917.915,95.438,540.953,538.606,0.0
51980.0,STARLINK-3649,PAYLOAD,2023-10-15 12:13:34,15.08820971,0.0001724,53.218,12.4476,95.3476,264.7713,0.0013577,0.00021375,0.0,0 STARLINK-3649,1 51980U 22025AA  23288.50942224  .00021375  00000-0  13577-2 0  9998,2 51980  53.2180  12.4476 0001724  95.3476 264.7713 15.08820971 88788,6917.939,95.439,540.996,538.611,0.0
51980.0,STARLINK-3649,PAYLOAD,2023-10-16 12:04:21,15.08852471,0.0001681,53.2179,7.9883,85.2694,274.849,0.0012558,0.00019761,0.0,0 STARLINK-3649,1 51980U 22025AA  23289.50302578  .00019761  00000-0  12558-2 0  9995,2 51980  53.2179   7.9883 0001681  85.2694 274.8490 15.08852471 88930,6917.842,95.437,540.87,538.544,0.0
51980.0,STARLINK-3649,PAYLOAD,2023-10-16 15:15:07,15.08862668,0.0001685,53.218,7.3926,86.8139,273.3046,0.0013531,0.00021326,0.0,0 STARLINK-3649,1 51980U 22025AA  23289.63550314  .00021326  00000-0  13531-2 0  9994,2 51980  53.2180   7.3926 0001685  86.8139 273.3046 15.08862668 90044,6917.811,95.436,540.842,538.51,0.0
51980.0,STARLINK-3649,PAYLOAD,2023-10-17 10:19:44,15.08856053,0.0001979,53.2179,3.8204,101.1225,258.999,0.00046146,7.067e-05,0.0,0 STARLINK-3649,1 51980U 22025AA  23290.43038116  .00007067  00000-0  46146-3 0  9990,2 51980  53.2179   3.8204 0001979 101.1225 258.9990 15.08856053 90166,6917.831,95.437,541.065,538.327,0.0
51980.0,STARLINK-3649,PAYLOAD,2023-10-17 11:55:08,15.08859123,0.0001621,53.2182,3.5274,87.0404,273.0774,0.00078872,0.00012293,0.0,0 STARLINK-3649,1 51980U 22025AA  23290.49662112  .00012293  00000-0  78872-3 0  9993,2 51980  53.2182   3.5274 0001621  87.0404 273.0774 15.08859123 89087,6917.822,95.436,540.808,538.566,0.0
51980.0,STARLINK-3649,PAYLOAD,2023-10-17 21:27:26,15.08853228,0.0001727,53.2184,1.7434,87.6234,272.4956,0.00066632,0.00010336,0.0,0 STARLINK-3649,1 51980U 22025AA  23290.89406169  .00010336  00000-0  66632-3 0  9992,2 51980  53.2184   1.7434 0001727  87.6234 272.4956 15.08853228 90235,6917.84,95.437,540.9,538.51,0.0
51980.0,STARLINK-3649,PAYLOAD,2023-10-18 11:45:55,15.08849813,0.0001739,53.2181,359.0678,96.6129,263.5061,0.00077107,0.00012008,0.0,0 STARLINK-3649,1 51980U 22025AA  23291.49022099  .00012008  00000-0  77107-3 0  9992,2 51980  53.2181 359.0678 0001739  96.6129 263.5061 15.08849813 90320,6917.85,95.437,540.918,538.512,0.0
51980.0,STARLINK-3649,PAYLOAD,2023-10-18 21:18:13,15.08849888,0.0001711,53.2182,357.2849,98.7736,261.345,0.00054386,8.38e-05,0.0,0 STARLINK-3649,1 51980U 22025AA  23291.88766018  .00008380  00000-0  54386-3 0  9993,2 51980  53.2182 357.2849 0001711  98.7736 261.3450 15.08849888 89292,6917.85,95.437,540.899,538.532,0.0
51980.0,STARLINK-3649,PAYLOAD,2023-10-19 11:36:41,15.08850555,0.0001785,53.2187,354.6078,86.1124,274.0072,0.00029778,4.456e-05,0.0,0 STARLINK-3649,1 51980U 22025AA  23292.48381860  .00004456  00000-0  29778-3 0  9995,2 51980  53.2187 354.6078 0001785  86.1124 274.0072 15.08850555 90471,6917.848,95.437,540.948,538.478,0.0
51980.0,STARLINK-3649,PAYLOAD,2023-10-19 21:09:00,15.08845993,0.000159,53.2179,352.8216,86.4377,273.6797,0.00021133,3.077e-05,0.0,0 STARLINK-3649,1 51980U 22025AA  23292.88125915  .00003077  00000-0  21133-3 0  9991,2 51980  53.2179 352.8216 0001590  86.4377 273.6797 15.08845993 89447,6917.862,95.437,540.827,538.627,0.0
51980.0,STARLINK-3649,PAYLOAD,2023-10-20 09:52:06,15.08834476,0.0001931,53.2189,350.4447,91.7039,268.4174,-5.0397e-05,-1.09e-05,0.0,0 STARLINK-3649,1 51980U 22025AA  23293.41118502 -.00001090  00000-0 -50397-4 0  9995,2 51980  53.2189 350.4447 0001931  91.7039 268.4174 15.08834476 90617,6917.897,95.438,541.098,538.426,0.0
51980.0,STARLINK-3649,PAYLOAD,2023-10-20 13:02:52,15.08839302,0.0001873,53.2193,349.8499,92.8034,267.3172,3.3287e-05,2.42e-06,0.0,0 STARLINK-3649,1 51980U 22025AA  23293.54366409  .00000242  00000-0  33287-4 0  9995,2 51980  53.2193 349.8499 0001873  92.8034 267.3172 15.08839302 89542,6917.883,95.438,541.043,538.452,0.0
51980.0,STARLINK-3649,PAYLOAD,2023-10-21 12:53:39,15.08851755,0.000168,53.2184,345.3849,81.264,278.8543,0.00019544,2.825e-05,0.0,0 STARLINK-3649,1 51980U 22025AA  23294.53725762  .00002825  00000-0  19544-3 0  9994,2 51980  53.2184 345.3849 0001680  81.2640 278.8543 15.08851755 90786,6917.844,95.437,540.872,538.547,0.0
51980.0,STARLINK-3649,PAYLOAD,2023-10-21 20:50:35,15.08840167,0.0001564,53.2188,343.9001,91.0332,269.084,3.7391e-05,3.07e-06,0.0,0 STARLINK-3649,1 51980U 22025AA  23294.86846356  .00000307  00000-0  37391-4 0  9997,2 51980  53.2188 343.9001 0001564  91.0332 269.0840 15.08840167 89743,6917.88,95.438,540.827,538.663,0.0
51980.0,STARLINK-3649,PAYLOAD,2023-10-22 03:12:08,15.08836885,0.0001918,53.2191,342.7129,89.2652,270.856,0.00013703,1.893e-05,0.0,0 STARLINK-3649,1 51980U 22025AA  23295.13342768  .00001893  00000-0  13703-3 0  9997,2 51980  53.2191 342.7129 0001918  89.2652 270.8560 15.08836885 90879,6917.89,95.438,541.082,538.428,0.0
51980.0,STARLINK-3649,PAYLOAD,2023-10-22 09:33:40,15.08837858,0.0001633,53.2181,341.5231,93.055,267.0629,0.0001303,1.786e-05,0.0,0 STARLINK-3649,1 51980U 22025AA  23295.39838732  .00001786  00000-0  13030-3 0  9990,2 51980  53.2181 341.5231 0001633  93.0550 267.0629 15.08837858 89821,6917.887,95.438,540.882,538.622,0.0
51980.0,STARLINK-3649,PAYLOAD,2023-10-23 09:24:27,15.08836948,0.0001429,53.2182,337.061,94.7843,265.3313,-8.2309e-05,-1.598e-05,0.0,0 STARLINK-3649,1 51980U 22025AA  23296.39198981 -.00001598  00000-0 -82309-4 0  9995,2 51980  53.2182 337.0610 0001429  94.7843 265.3313 15.08836948 91068,6917.89,95.438,540.743,538.766,0.0
51980.0,STARLINK-3649,PAYLOAD,2023-10-24 09:15:14,15.08845791,0.0001373,53.2172,332.5995,95.7936,264.3213,0.0003091,4.636e-05,0.0,0 STARLINK-3649,1 51980U 22025AA  23297.38558982  .00004636  00000-0  30910-3 0  9990,2 51980  53.2172 332.5995 0001373  95.7936 264.3213 15.08845791 90125,6917.863,95.437,540.678,538.778,0.0
51980.0,STARLINK-3649,PAYLOAD,2023-10-25 09:06:01,15.08846873,0.0001418,53.2172,328.1414,90.1913,269.9241,0.00016995,2.418e-05,0.0,0 STARLINK-3649,1 51980U 22025AA  23298.37918860  .00002418  00000-0  16995-3 0  9998,2 51980  53.2172 328.1414 0001418  90.1913 269.9241 15.08846873 91367,6917.859,95.437,540.705,538.743,0.0
51980.0,STARLINK-3649,PAYLOAD,2023-10-26 02:35:16,15.08841044,0.0001755,53.2186,324.8739,95.5702,264.5491,-5.2077e-06,-3.71e-06,0.0,0 STARLINK-3649,1 51980U 22025AA  23299.10783079 -.00000371  00000-0 -52077-5 0  9993,2 51980  53.2186 324.8739 0001755  95.5702 264.5491 15.08841044 91479,6917.877,95.437,540.956,538.528,0.0
51980.0,STARLINK-3649,PAYLOAD,2023-10-26 10:32:12,15.08839561,0.0001472,53.2194,323.3876,86.6988,273.4173,3.8106e-05,3.19e-06,0.0,0 STARLINK-3649,1 51980U 22025AA  23299.43903518  .00000319  00000-0  38106-4 0  9997,2 51980  53.2194 323.3876 0001472  86.6988 273.4173 15.08839561 90439,6917.882,95.438,540.765,538.728,0.0
51980.0,STARLINK-3649,PAYLOAD,2023-10-27 11:58:21,15.08855744,0.0001721,53.218,318.6247,92.0541,268.0648,0.00024743,3.654e-05,0.0,0 STARLINK-3649,1 51980U 22025AA  23300.49886252  .00003654  00000-0  24743-3 0  9997,2 51980  53.2180 318.6247 0001721  92.0541 268.0648 15.08855744 91682,6917.832,95.437,540.888,538.507,0.0
51980.0,STARLINK-3649,PAYLOAD,2023-10-27 13:33:44,15.08861033,0.0001612,53.2169,318.3287,83.6419,276.4757,0.00043698,6.677e-05,0.0,0 STARLINK-3649,1 51980U 22025AA  23300.56510143  .00006677  00000-0  43698-3 0  9996,2 51980  53.2169 318.3287 0001612  83.6419 276.4757 15.08861033 90602,6917.816,95.436,540.796,538.566,0.0
51980.0,STARLINK-3649,PAYLOAD,2023-10-27 18:19:55,15.0883374,0.0001807,53.2171,317.4398,101.6777,258.4418,-6.2584e-05,-1.284e-05,0.0,0 STARLINK-3649,1 51980U 22025AA  23300.76383266 -.00001284  00000-0 -62584-4 0  9999,2 51980  53.2171 317.4398 0001807 101.6777 258.4418 15.08833740 91724,6917.9,95.438,541.015,538.514,0.0
51980.0,STARLINK-3649,PAYLOAD,2023-10-28 08:38:23,15.08838786,0.0001622,53.216,314.7595,95.5188,264.5989,0.00011553,1.551e-05,0.0,0 STARLINK-3649,1 51980U 22025AA  23301.35999205  .00001551  00000-0  11553-3 0  9995,2 51980  53.2160 314.7595 0001622  95.5188 264.5989 15.08838786 90728,6917.884,95.438,540.871,538.627,0.0
51980.0,STARLINK-3649,PAYLOAD,2023-10-28 18:10:42,15.08838815,0.0001688,53.2156,312.9744,95.6136,264.5049,0.00054308,8.365e-05,0.0,0 STARLINK-3649,1 51980U 22025AA  23301.75743472  .00008365  00000-0  54308-3 0  9997,2 51980  53.2156 312.9744 0001688  95.6136 264.5049 15.08838815 90781,6917.884,95.438,540.917,538.581,0.0
51980.0,STARLINK-3649,PAYLOAD,2023-10-29 08:29:10,15.08849797,0.0001615,53.2147,310.2984,98.5523,261.5652,0.00075319,0.00011723,0.0,0 STARLINK-3649,1 51980U 22025AA  23302.35359387  .00011723  00000-0  75319-3 0  9999,2 51980  53.2147 310.2984 0001615  98.5523 261.5652 15.08849797 90878,6917.85,95.437,540.833,538.598,0.0
